NORAD_CAT_ID,OBJECT_NAME,OBJECT_TYPE,EPOCH,MEAN_MOTION,ECCENTRICITY,INCLINATION,RA_OF_ASC_NODE,ARG_OF_PERICENTER,MEAN_ANOMALY,BSTAR,MEAN_MOTION_DOT,MEAN_MOTION_DDOT,TLE_LINE0,TLE_LINE1,TLE_LINE2,SEMIMAJOR_AXIS,PERIOD,APOGEE,PERIGEE,DECAYED
49428.0,STARLINK-3121,PAYLOAD,2021-12-21 14:00:01,15.61275277,0.0001133,53.2177,305.1344,58.0921,45.2633,-0.0067249,-0.00544297,0.0,0 STARLINK-3121,1 49428U 21104W   21355.58334491 -.00544297  00000-0 -67249-2 0  9991,2 49428  53.2177 305.1344 0001133  58.0921  45.2633 15.61275277  3668,6762.109,92.232,384.74,383.208,0.0
49428.0,STARLINK-3121,PAYLOAD,2021-12-21 22:00:00,15.60892535,0.0001306,53.2176,303.5173,65.9592,111.7666,-0.00835,-0.00656661,0.0,0 STARLINK-3121,1 49428U 21104W   21355.91667824 -.00656661  00000-0 -83500-2 0  9994,2 49428  53.2176 303.5173 0001306  65.9592 111.7666 15.60892535  7314,6763.215,92.255,385.963,384.196,0.0
49428.0,STARLINK-3121,PAYLOAD,2021-12-22 14:00:01,15.59961475,0.000109,53.2176,300.2849,83.1652,241.708,-0.0087143,-0.00660741,0.0,0 STARLINK-3121,1 49428U 21104W   21356.58334491 -.00660741  00000-0 -87143-2 0  9990,2 49428  53.2176 300.2849 0001090  83.1652 241.7080 15.59961475  3685,6765.905,92.31,388.508,387.033,0.0
49428.0,STARLINK-3121,PAYLOAD,2021-12-22 20:00:01,15.59609044,0.0001208,53.2177,299.0731,73.1425,216.3341,-0.008757,-0.00655501,0.0,0 STARLINK-3121,1 49428U 21104W   21356.83334491 -.00655501  00000-0 -87570-2 0  9990,2 49428  53.2177 299.0731 0001208  73.1425 216.3341 15.59609044  7457,6766.925,92.331,389.607,387.972,0.0
49428.0,STARLINK-3121,PAYLOAD,2021-12-22 22:00:00,15.59494416,0.0001144,53.2177,298.6702,64.8558,332.7506,-0.0088513,-0.00659328,0.0,0 STARLINK-3121,1 49428U 21104W   21356.91667824 -.00659328  00000-0 -88513-2 0  9997,2 49428  53.2177 298.6702 0001144  64.8558 332.7506 15.59494416  3708,6767.255999999999,92.338,389.895,388.347,0.0
49428.0,STARLINK-3121,PAYLOAD,2021-12-23 14:00:01,15.58560411,0.0001224,53.2176,295.4442,75.2202,106.1709,-0.0091492,-0.00657789,0.0,0 STARLINK-3121,1 49428U 21104W   21357.58334491 -.00657789  00000-0 -91492-2 0  9991,2 49428  53.2176 295.4442 0001224  75.2202 106.1709 15.58560411  3687,6769.96,92.393,392.653,390.996,0.0
49428.0,STARLINK-3121,PAYLOAD,2021-12-23 22:00:00,15.58093558,0.0001284,53.2178,293.8331,70.6396,181.8026,-0.0093011,-0.00657036,0.0,0 STARLINK-3121,1 49428U 21104W   21357.91667824 -.00657036  00000-0 -93011-2 0  9991,2 49428  53.2178 293.8331 0001284  70.6396 181.8026 15.58093558  7620,6771.312,92.421,394.046,392.307,0.0
49428.0,STARLINK-3121,PAYLOAD,2021-12-24 14:00:01,15.57159889,0.0001036,53.2175,290.6139,74.7051,318.1579,-0.0096274,-0.00656534,0.0,0 STARLINK-3121,1 49428U 21104W   21358.58334491 -.00656534  00000-0 -96274-2 0  9992,2 49428  53.2175 290.6139 0001036  74.7051 318.1579 15.57159889  3696,6774.018,92.476,396.585,395.182,0.0
49428.0,STARLINK-3121,PAYLOAD,2021-12-24 22:00:00,15.56589636,0.0001229,53.2175,289.0038,85.9854,16.3078,-0.0077331999999999,-0.00524851,0.0,0 STARLINK-3121,1 49428U 21104W   21358.91667824 -.00524851  00000-0 -77332-2 0  9998,2 49428  53.2175 289.0038 0001229  85.9854  16.3078 15.56589636  7775,6775.6730000000025,92.51,398.37,396.705,0.0
49428.0,STARLINK-3121,PAYLOAD,2021-12-25 14:00:01,15.5576025,0.0001207,53.2176,285.7935,81.5821,157.7068,-0.010138,-0.0065615,0.0,0 STARLINK-3121,1 49428U 21104W   21359.58334491 -.00656150  00000-0 -10138-1 0  9991,2 49428  53.2176 285.7935 0001207  81.5821 157.7068 15.55760250  3684,6778.081,92.559,400.764,399.127,0.0
49428.0,STARLINK-3121,PAYLOAD,2021-12-25 22:00:00,15.55294697,0.0001202,53.2178,284.1895,69.6228,237.3528,-0.010344,-0.00657864,0.0,0 STARLINK-3121,1 49428U 21104W   21359.91667824 -.00657864  00000-0 -10344-1 0  9999,2 49428  53.2178 284.1895 0001202  69.6228 237.3528 15.55294697  3691,6779.433000000001,92.587,402.11300000000006,400.483,0.0
49428.0,STARLINK-3121,PAYLOAD,2021-12-26 06:00:02,15.54825566,0.0001061,53.2175,282.5876,73.697,300.4701,-0.010446,-0.00653277,0.0,0 STARLINK-3121,1 49428U 21104W   21360.25002315 -.00653277  00000-0 -10446-1 0  9993,2 49428  53.2175 282.5876 0001061  73.6970 300.4701 15.54825566  7986,6780.797,92.615,403.381,401.942,0.0
49428.0,STARLINK-3121,PAYLOAD,2021-12-26 14:00:01,15.54270849,0.0001103,53.2179,280.9818,51.9652,28.7523,-0.0086231,-0.00536264,0.0,0 STARLINK-3121,1 49428U 21104W   21360.58334491 -.00536264  00000-0 -86231-2 0  9994,2 49428  53.2179 280.9818 0001103  51.9652  28.7523 15.54270849  3662,6782.41,92.648,405.023,403.527,0.0
49428.0,STARLINK-3121,PAYLOAD,2021-12-26 22:00:00,15.53894127,0.0001366,53.2177,279.3829,57.7637,88.9105,-0.010866,-0.0065643,0.0,0 STARLINK-3121,1 49428U 21104W   21360.91667824 -.00656430  00000-0 -10866-1 0  9998,2 49428  53.2177 279.3829 0001366  57.7637  88.9105 15.53894127  3688,6783.505999999999,92.67,406.298,404.445,0.0
49428.0,STARLINK-3121,PAYLOAD,2021-12-27 06:00:00,15.53423896,0.0001299,53.2172,277.7841,69.2187,142.9007,-0.010933,-0.00649748,0.0,0 STARLINK-3121,1 49428U 21104W   21361.25001157 -.00649748  00000-0 -10933-1 0  9996,2 49428  53.2172 277.7841 0001299  69.2187 142.9007 15.53423896  8141,6784.875,92.698,407.621,405.859,0.0
49428.0,STARLINK-3121,PAYLOAD,2021-12-27 14:00:01,15.529596,0.0001193,53.2175,276.1832,79.3515,197.6526,-0.011194,-0.00653737,0.0,0 STARLINK-3121,1 49428U 21104W   21361.58334491 -.00653737  00000-0 -11194-1 0  9995,2 49428  53.2175 276.1832 0001193  79.3515 197.6526 15.52959600  3691,6786.227,92.726,408.902,407.283,0.0
49428.0,STARLINK-3121,PAYLOAD,2021-12-27 22:00:00,15.52495496,0.0001215,53.2176,274.5863,62.7986,278.5277,-0.011462,-0.00657849,0.0,0 STARLINK-3121,1 49428U 21104W   21361.91667824 -.00657849  00000-0 -11462-1 0  9997,2 49428  53.2176 274.5863 0001215  62.7986 278.5277 15.52495496  3680,6787.58,92.754,410.269,408.62,0.0
49428.0,STARLINK-3121,PAYLOAD,2021-12-28 06:00:00,15.52026747,0.0001044,53.2172,272.9909,83.3415,321.7474,-0.011576,-0.0065354,0.0,0 STARLINK-3121,1 49428U 21104W   21362.25001157 -.00653540  00000-0 -11576-1 0  9996,2 49428  53.2172 272.9909 0001044  83.3415 321.7474 15.52026747  8296,6788.946,92.782,411.52,410.103,0.0
49428.0,STARLINK-3121,PAYLOAD,2021-12-28 14:00:01,15.51559759,0.0001157,53.2174,271.3934,67.9576,40.3352,-0.011771,-0.00653465,0.0,0 STARLINK-3121,1 49428U 21104W   21362.58334491 -.00653465  00000-0 -11771-1 0  9995,2 49428  53.2174 271.3934 0001157  67.9576  40.3352 15.51559759  3714,6790.308000000001,92.81,412.959,411.388,0.0
49428.0,STARLINK-3121,PAYLOAD,2021-12-28 22:00:00,15.51093594,0.0001406,53.2175,269.7999,59.5048,111.4291,-0.011982,-0.00654104,0.0,0 STARLINK-3121,1 49428U 21104W   21362.91667824 -.00654104  00000-0 -11982-1 0  9996,2 49428  53.2175 269.7999 0001406  59.5048 111.4291 15.51093594  3683,6791.669,92.838,414.489,412.579,0.0
49428.0,STARLINK-3121,PAYLOAD,2021-12-29 06:00:02,15.50627133,0.0001240999999999,53.2172,268.2074,82.6757,150.4029,-0.012176,-0.00653683,0.0,0 STARLINK-3121,1 49428U 21104W   21363.25002315 -.00653683  00000-0 -12176-1 0  9999,2 49428  53.2172 268.2074 0001241  82.6757 150.4029 15.50627133  8452,6793.031,92.866,415.739,414.05300000000005,0.0
49428.0,STARLINK-3121,PAYLOAD,2021-12-29 14:00:01,15.50159333,0.0001167,53.2175,266.6132,76.8098,217.791,-0.012347,-0.00652007,0.0,0 STARLINK-3121,1 49428U 21104W   21363.58335648 -.00652007  00000-0 -12347-1 0  9992,2 49428  53.2175 266.6132 0001167  76.8098 217.7910 15.50159333  3703,6794.397,92.894,417.055,415.47,0.0
49428.0,STARLINK-3121,PAYLOAD,2021-12-29 22:01:10,15.50467008,0.000229,53.2178,264.9947,116.3501,243.7744,-0.0059025,-0.00328558,0.0,0 STARLINK-3121,1 49428U 21104W   21363.91747868 -.00328558  00000-0 -59025-2 0  9996,2 49428  53.2178 264.9947 0002290 116.3501 243.7744 15.50467008  7482,6793.499,92.875,416.919,413.8080000000001,0.0
49428.0,STARLINK-3121,PAYLOAD,2021-12-30 02:39:50,15.50145867,0.0001663,53.2181,264.0749,68.5162,291.6025,-0.0061993,-0.00340586,0.0,0 STARLINK-3121,1 49428U 21104W   21364.11100309 -.00340586  00000-0 -61993-2 0  9994,2 49428  53.2181 264.0749 0001663  68.5162 291.6025 15.50145867  8583,6794.437,92.894,417.432,415.172,0.0
49428.0,STARLINK-3121,PAYLOAD,2021-12-30 14:00:01,15.48761146,0.0001239,53.2173,261.8435,63.6836,52.0493,-0.013032,-0.00654663,0.0,0 STARLINK-3121,1 49428U 21104W   21364.58334491 -.00654663  00000-0 -13032-1 0  9990,2 49428  53.2173 261.8435 0001239  63.6836  52.0493 15.48761146  3689,6798.486,92.978,421.193,419.509,0.0
49428.0,STARLINK-3121,PAYLOAD,2021-12-30 21:14:51,15.49080961,0.0002012,53.2177,260.3887,86.23700000000002,273.8869,-0.0059723,-0.00316964,0.0,0 STARLINK-3121,1 49428U 21104W   21364.88532235 -.00316964  00000-0 -59723-2 0  9996,2 49428  53.2177 260.3887 0002012  86.2370 273.8869 15.49080961  7631,6797.55,92.958,420.783,418.048,0.0
49428.0,STARLINK-3121,PAYLOAD,2021-12-30 22:00:01,15.48293191,0.0001479,53.2175,260.2571,56.6222,118.4529,-0.013196,-0.00652298,0.0,0 STARLINK-3121,1 49428U 21104W   21364.91668981 -.00652298  00000-0 -13196-1 0  9994,2 49428  53.2175 260.2571 0001479  56.6222 118.4529 15.48293191  8718,6799.856,93.006,422.727,420.715,0.0
49428.0,STARLINK-3121,PAYLOAD,2021-12-31 14:00:01,15.47360053,0.0001219,53.2173,257.0837,73.7067,218.1783,-0.013629,-0.00652003,0.0,0 STARLINK-3121,1 49428U 21104W   21365.58334491 -.00652003  00000-0 -13629-1 0  9999,2 49428  53.2173 257.0837 0001219  73.7067 218.1783 15.47360053  3686,6802.589,93.062,425.284,423.625,0.0
49428.0,STARLINK-3121,PAYLOAD,2021-12-31 22:00:00,15.46895664,0.0001284,53.2175,255.5009,58.8094,290.6698,-0.01393,-0.00655414,0.0,0 STARLINK-3121,1 49428U 21104W   21365.91667824 -.00655414  00000-0 -13930-1 0  9999,2 49428  53.2175 255.5009 0001284  58.8094 290.6698 15.46895664  8863,6803.951,93.09,426.689,424.942,0.0
